[Satellite]
VERSION=1.1
NAME=STARLINK-4757
NICKNAME=STARLINK-4757
TLE1=1 53824U 22114G   22291.33334491 -.00019918  00000+0 -13794-3 0  9994
TLE2=2 53824  53.2149 113.8563 0001105  73.4989 264.9498 15.73183122  5181
STATUS=0
